STARLINK-2408
1 17823C 21018AN  21326.17151839  .00005550  00000-0  37175-3 0  3260
2 17823  53.0551  92.9728 0001423  69.6193 350.8410 15.06400944    11
